STARLINK-1219
1 15210C 20012AJ  21326.12981933 -.00017822  00000-0 -11941-2 0  3261
2 15210  53.0532 228.1692 0001935  69.8475  81.8805 15.06416049    16
